CSS (TIANHE)            
1 48274U 21035A   24207.37633779  .00017640  00000+0  22366-3 0  9995
2 48274  41.4680 209.9570 0002327 304.7627  55.2991 15.59037356185071
